NORAD_CAT_ID,OBJECT_NAME,OBJECT_TYPE,EPOCH,MEAN_MOTION,ECCENTRICITY,INCLINATION,RA_OF_ASC_NODE,ARG_OF_PERICENTER,MEAN_ANOMALY,BSTAR,MEAN_MOTION_DOT,MEAN_MOTION_DDOT,TLE_LINE0,TLE_LINE1,TLE_LINE2,SEMIMAJOR_AXIS,PERIOD,APOGEE,PERIGEE,DECAYED
53136.0,STARLINK-4152,PAYLOAD,2023-06-11 08:00:21,15.08841622,0.000121,53.2172,353.8706,80.8029,279.31,9.5651e-05,1.235e-05,0.0,0 STARLINK-4152,1 53136U 22083E   23162.33358321  .00001235  00000-0  95651-4 0  9996,2 53136  53.2172 353.8706 0001210  80.8029 279.3100 15.08841622 50524,6917.875,95.437,540.577,538.903,0.0
53136.0,STARLINK-4152,PAYLOAD,2023-06-11 19:08:03,15.08838762,0.0001061,53.2177,351.788,86.3213,273.7901,8.927e-05,1.133e-05,0.0,0 STARLINK-4152,1 53136U 22083E   23162.79726533  .00001133  00000-0  89270-4 0  9997,2 53136  53.2177 351.7880 0001061  86.3213 273.7901 15.08838762 50954,6917.884,95.438,540.483,539.015,0.0
53136.0,STARLINK-4152,PAYLOAD,2023-06-12 18:58:50,15.08843627,0.0001107,53.2176,347.3272,87.729,272.3829,9.9934e-05,1.303e-05,0.0,0 STARLINK-4152,1 53136U 22083E   23163.79086113  .00001303  00000-0  99934-4 0  9998,2 53136  53.2176 347.3272 0001107  87.7290 272.3829 15.08843627 50747,6917.869,95.437,540.5,538.968,0.0
53136.0,STARLINK-4152,PAYLOAD,2023-06-12 22:09:36,15.0884738,0.0001029,53.2177,346.7321,91.5705,268.5405,0.0001024,1.343e-05,0.0,0 STARLINK-4152,1 53136U 22083E   23163.92333852  .00001343  00000-0  10240-3 0  9994,2 53136  53.2177 346.7321 0001029  91.5705 268.5405 15.08847380 51123,6917.858,95.437,540.435,539.011,0.0
53136.0,STARLINK-4152,PAYLOAD,2023-06-13 12:28:05,15.08824035,9.25e-05,53.2187,344.0534,97.4722,262.6375,0.00017926,2.565e-05,0.0,0 STARLINK-4152,1 53136U 22083E   23164.51951201  .00002565  00000-0  17926-3 0  9999,2 53136  53.2187 344.0534 0000925  97.4722 262.6375 15.08824035 50851,6917.929,95.439,540.434,539.154,0.0
53136.0,STARLINK-4152,PAYLOAD,2023-06-13 18:49:37,15.08840245,0.000103,53.218,342.8666,89.1785,270.9325,0.00012218,1.657e-05,0.0,0 STARLINK-4152,1 53136U 22083E   23164.78446461  .00001657  00000-0  12218-3 0  9995,2 53136  53.2180 342.8666 0001030  89.1785 270.9325 15.08840245 50893,6917.88,95.438,540.457,539.032,0.0
53136.0,STARLINK-4152,PAYLOAD,2023-06-14 10:43:29,15.08839291,0.0001335,53.2178,339.8935,90.6623,269.4522,-1.8656e-05,-5.85e-06,0.0,0 STARLINK-4152,1 53136U 22083E   23165.44686618 -.00000585  00000-0 -18656-4 0  9993,2 53136  53.2178 339.8935 0001335  90.6623 269.4522 15.08839291 51354,6917.883,95.438,540.671,538.824,0.0
53136.0,STARLINK-4152,PAYLOAD,2023-06-14 18:40:24,15.08839711,0.0001284,53.2178,338.4074,86.7135,273.4004,-6.9353e-06,-3.98e-06,0.0,0 STARLINK-4152,1 53136U 22083E   23165.77806612 -.00000398  00000-0 -69353-5 0  9990,2 53136  53.2178 338.4074 0001284  86.7135 273.4004 15.08839711 51403,6917.881,95.438,540.635,538.858,0.0
53136.0,STARLINK-4152,PAYLOAD,2023-06-14 21:51:11,15.08839236,0.0001225,53.2179,337.813,85.5853,274.5279,-6.147e-06,-3.86e-06,0.0,0 STARLINK-4152,1 53136U 22083E   23165.91054654 -.00000386  00000-0 -61470-5 0  9996,2 53136  53.2179 337.8130 0001225  85.5853 274.5279 15.08839236 51069,6917.883,95.438,540.595,538.9,0.0
53136.0,STARLINK-4152,PAYLOAD,2023-06-15 10:34:16,15.08832976,0.0001122,53.218,335.4336,88.9971,271.115,0.00012588,1.716e-05,0.0,0 STARLINK-4152,1 53136U 22083E   23166.44047430  .00001716  00000-0  12588-3 0  9999,2 53136  53.2180 335.4336 0001122  88.9971 271.1150 15.08832976 51141,6917.902,95.438,540.543,538.991,0.0
53136.0,STARLINK-4152,PAYLOAD,2023-06-15 12:09:39,15.0883594,0.0001151,53.2172,335.1361,87.384,272.7283,3.5224e-05,2.73e-06,0.0,0 STARLINK-4152,1 53136U 22083E   23166.50671106  .00000273  00000-0  35224-4 0  9999,2 53136  53.2172 335.1361 0001151  87.3840 272.7283 15.08835940 51516,6917.893,95.438,540.554,538.962,0.0
53136.0,STARLINK-4152,PAYLOAD,2023-06-15 18:31:12,15.08842578,0.0001111,53.2178,333.947,83.5151,276.5968,0.00012499,1.702e-05,0.0,0 STARLINK-4152,1 53136U 22083E   23166.77166809  .00001702  00000-0  12499-3 0  9993,2 53136  53.2178 333.9470 0001111  83.5151 276.5968 15.08842578 51199,6917.873,95.437,540.506,538.969,0.0
53136.0,STARLINK-4152,PAYLOAD,2023-06-16 12:00:26,15.08846064,0.0001037,53.2163,330.6742,90.3127,269.7984,0.00021997,3.215e-05,0.0,0 STARLINK-4152,1 53136U 22083E   23167.50030623  .00003215  00000-0  21997-3 0  9993,2 53136  53.2163 330.6742 0001037  90.3127 269.7984 15.08846064 51663,6917.862,95.437,540.444,539.009,0.0
53136.0,STARLINK-4152,PAYLOAD,2023-06-16 19:57:21,15.08859237,0.0001011,53.217,329.1878,82.52,277.5907,0.0003371,5.084e-05,0.0,0 STARLINK-4152,1 53136U 22083E   23167.83149786  .00005084  00000-0  33710-3 0  9992,2 53136  53.2170 329.1878 0001011  82.5200 277.5907 15.08859237 51715,6917.822,95.436,540.386,538.987,0.0
53136.0,STARLINK-4152,PAYLOAD,2023-06-17 10:15:50,15.08832469,0.0001904,53.217,326.5123,71.8798,288.2401,-6.8299e-05,-1.375e-05,0.0,0 STARLINK-4152,1 53136U 22083E   23168.42767355 -.00001375  00000-0 -68299-4 0  9998,2 53136  53.2170 326.5123 0001904  71.8798 288.2401 15.08832469 51449,6917.903,95.438,541.086,538.451,0.0
53136.0,STARLINK-4152,PAYLOAD,2023-06-17 11:51:14,15.08833273,0.0001918,53.2172,326.2151,73.1634,286.9569,-4.6602e-05,-1.03e-05,0.0,0 STARLINK-4152,1 53136U 22083E   23168.49391383 -.00001030  00000-0 -46602-4 0  9991,2 53136  53.2172 326.2151 0001918  73.1634 286.9569 15.08833273 51813,6917.901,95.438,541.093,538.439,0.0
53136.0,STARLINK-4152,PAYLOAD,2023-06-17 16:37:23,15.08835688,0.0001964,53.2173,325.3232,72.6441,287.4766,1.4049e-05,-6.5e-07,0.0,0 STARLINK-4152,1 53136U 22083E   23168.69263414 -.00000065  00000-0  14049-4 0  9992,2 53136  53.2173 325.3232 0001964  72.6441 287.4766 15.08835688 51845,6917.894,95.438,541.117,538.4,0.0
53136.0,STARLINK-4152,PAYLOAD,2023-06-18 10:06:38,15.08838471,0.0001115,53.2172,322.0517,58.8046,301.3055,0.001024,0.00016046,0.0,0 STARLINK-4152,1 53136U 22083E   23169.42128084  .00016046  00000-0  10240-2 0  9999,2 53136  53.2172 322.0517 0001115  58.8046 301.3055 15.08838471 51951,6917.885,95.438,540.521,538.979,0.0
53136.0,STARLINK-4152,PAYLOAD,2023-06-18 16:28:10,15.08853835,0.000113,53.2172,320.8623,56.9675,303.1425,0.0012305,0.00019357,0.0,0 STARLINK-4152,1 53136U 22083E   23169.68623837  .00019357  00000-0  12305-2 0  9995,2 53136  53.2172 320.8623 0001130  56.9675 303.1425 15.08853835 51636,6917.838,95.437,540.485,538.921,0.0
53136.0,STARLINK-4152,PAYLOAD,2023-06-19 09:57:24,15.08864435,0.0001176,53.217,317.5917,52.925,307.1849,0.00079438,0.00012386,0.0,0 STARLINK-4152,1 53136U 22083E   23170.41487139  .00012386  00000-0  79438-3 0  9997,2 53136  53.2170 317.5917 0001176  52.9250 307.1849 15.08864435 51742,6917.806,95.436,540.484,538.857,0.0
53136.0,STARLINK-4152,PAYLOAD,2023-06-19 16:18:57,15.08855736,0.0001217,53.2175,316.4025,54.7879,305.3227,0.00040169,6.113e-05,0.0,0 STARLINK-4152,1 53136U 22083E   23170.67983180  .00006113  00000-0  40169-3 0  9992,2 53136  53.2175 316.4025 0001217  54.7879 305.3227 15.08855736 51786,6917.832,95.437,540.539,538.855,0.0
53136.0,STARLINK-4152,PAYLOAD,2023-06-20 09:48:12,15.0884437,0.000122,53.2172,313.1325,55.1414,304.9693,0.00017444,2.49e-05,0.0,0 STARLINK-4152,1 53136U 22083E   23171.40847287  .00002490  00000-0  17444-3 0  9995,2 53136  53.2172 313.1325 0001220  55.1414 304.9693 15.08844370 51890,6917.867,95.437,540.576,538.888,0.0
53136.0,STARLINK-4152,PAYLOAD,2023-06-20 16:09:44,15.08842345,0.0001173,53.2176,311.9419,69.0816,291.0302,-7.4664e-08,-2.89e-06,0.0,0 STARLINK-4152,1 53136U 22083E   23171.67343282 -.00000289  00000-0 -74664-7 0  9997,2 53136  53.2176 311.9419 0001173  69.0816 291.0302 15.08842345 52299,6917.873,95.437,540.55,538.927,0.0
53136.0,STARLINK-4152,PAYLOAD,2023-06-21 12:49:45,15.08841713,0.0001038,53.2181,308.077,73.51,286.6006,5.1029e-05,5.24e-06,0.0,0 STARLINK-4152,1 53136U 22083E   23172.53455278  .00000524  00000-0  51029-4 0  9999,2 53136  53.2181 308.0770 0001038  73.5100 286.6006 15.08841713 52422,6917.875,95.437,540.458,539.022,0.0
53136.0,STARLINK-4152,PAYLOAD,2023-06-21 16:00:31,15.08846944,0.000105,53.2177,307.4825,72.9581,287.1527,0.00011227,1.5e-05,0.0,0 STARLINK-4152,1 53136U 22083E   23172.66703034  .00001500  00000-0  11227-3 0  9999,2 53136  53.2177 307.4825 0001050  72.9581 287.1527 15.08846944 52088,6917.859,95.437,540.451,538.998,0.0
53136.0,STARLINK-4152,PAYLOAD,2023-06-22 09:29:46,15.08835485,0.0001039,53.2177,304.2118,75.8274,284.2834,5.526e-05,5.92e-06,0.0,0 STARLINK-4152,1 53136U 22083E   23173.39567761  .00000592  00000-0  55260-4 0  9991,2 53136  53.2177 304.2118 0001039  75.8274 284.2834 15.08835485 52195,6917.894,95.438,540.478,539.04,0.0
53136.0,STARLINK-4152,PAYLOAD,2023-06-23 15:42:05,15.08849917,8.92e-05,53.2177,298.5623,90.1118,269.9976,0.00024938,3.684e-05,0.0,0 STARLINK-4152,1 53136U 22083E   23174.65423240  .00003684  00000-0  24938-3 0  9996,2 53136  53.2177 298.5623 0000892  90.1118 269.9976 15.08849917 52387,6917.85,95.437,540.332,539.098,0.0
53136.0,STARLINK-4152,PAYLOAD,2023-06-24 01:14:24,15.08843546,8.38e-05,53.2165,296.7769,81.7674,278.3413,0.00014342,1.996e-05,0.0,0 STARLINK-4152,1 53136U 22083E   23175.05167361  .00001996  00000-0  14342-3 0  9992,2 53136  53.2165 296.7769 0000838  81.7674 278.3413 15.08843546 52447,6917.87,95.437,540.314,539.155,0.0
53136.0,STARLINK-4152,PAYLOAD,2023-06-25 01:05:11,15.08839849,0.0001045,53.217,292.3183,92.3678,267.7434,7.0102e-05,8.28e-06,0.0,0 STARLINK-4152,1 53136U 22083E   23176.04527764  .00000828  00000-0  70102-4 0  9999,2 53136  53.2170 292.3183 0001045  92.3678 267.7434 15.08839849 52590,6917.881,95.438,540.469,539.023,0.0
53136.0,STARLINK-4152,PAYLOAD,2023-06-26 07:17:32,15.088324,0.0001246,53.2162,286.6685,76.4745,283.6386,1.8162e-05,1e-08,0.0,0 STARLINK-4152,1 53136U 22083E   23177.30384470  .00000001  00000-0  18162-4 0  9995,2 53136  53.2162 286.6685 0001246  76.4745 283.6386 15.08832400 52785,6917.904,95.438,540.631,538.907,0.0
